[{"OBJECT_NAME":"TIANMU-1 09","OBJECT_ID":"2023-101C","EPOCH":"2026-03-09T22:17:34.703232","MEAN_MOTION":15.29080822,"ECCENTRICITY":0.00049013,"INCLINATION":97.267,"RA_OF_ASC_NODE":121.1263,"ARG_OF_PERICENTER":139.4293,"MEAN_ANOMALY":220.7314,"EPHEMERIS_TYPE":0,"CLASSIFICATION_TYPE":"U","NORAD_CAT_ID":57401,"ELEMENT_SET_NO":999,"REV_AT_EPOCH":14647,"BSTAR":0.00030540035,"MEAN_MOTION_DOT":8.553e-5,"MEAN_MOTION_DDOT":0},{"OBJECT_NAME":"STARLINK-31730","OBJECT_ID":"2024-074X","EPOCH":"2026-03-09T02:59:21.351552","MEAN_MOTION":15.27556672,"ECCENTRICITY":0.00011459,"INCLINATION":43.003,"RA_OF_ASC_NODE":347.0799,"ARG_OF_PERICENTER":251.2892,"MEAN_ANOMALY":108.7835,"EPHEMERIS_TYPE":0,"CLASSIFICATION_TYPE":"U","NORAD_CAT_ID":59555,"ELEMENT_SET_NO":999,"REV_AT_EPOCH":10592,"BSTAR":-8.0472376e-5,"MEAN_MOTION_DOT":-2.474e-5,"MEAN_MOTION_DDOT":0}]
